      2.10          N: GNSS NAV DATA                        RINEX VERSION / TYPE
fic2rin                                 12/27/2021 00:17:18 PGM / RUN BY / DATE
                                                            END OF HEADER
 8 21 12 26 17 59 44.0-4.962319508195e-05-1.477928890381e-12 0.000000000000e+00
    2.400000000000e+01-2.406250000000e+00 4.269106396846e-09-1.641231111475e+00
   -2.067536115646e-07 7.010619505309e-03 8.745118975639e-06 5.153698345184e+03
    6.478400000000e+04-9.313225746155e-09-2.112273161890e+00-7.078051567078e-08
    9.652600484183e-01 2.146562500000e+02 6.952287030661e-02-7.980689570611e-09
   -2.189376910622e-10 1.000000000000e+00 2.190000000000e+03 0.000000000000e+00
    2.400000000000e+00 0.000000000000e+00 5.122274160385e-09 2.400000000000e+01
    5.811000000000e+04 4.000000000000e+00
 7 21 12 26 17 59 44.0 2.952953800559e-04 4.206412995700e-12 0.000000000000e+00
    2.400000000000e+01 3.946875000000e+01 4.944848829945e-09 1.672150584355e+00
    2.037733793259e-06 1.536960154772e-02 9.968876838684e-06 5.153711381912e+03
    6.478400000000e+04-3.613531589508e-07 2.102938556655e+00 2.235174179077e-08
    9.508402975150e-01 1.869062500000e+02-2.297876498591e+00-8.298559954046e-09
    1.996511734156e-10 1.000000000000e+00 2.190000000000e+03 0.000000000000e+00
    2.400000000000e+00 0.000000000000e+00-1.117587089539e-08 2.400000000000e+01
    6.420000000000e+04 4.000000000000e+00
24 21 12 26 17 59 44.0 2.762223593891e-04 1.136868377216e-12 0.000000000000e+00
    4.000000000000e+00 2.959375000000e+01 5.125927801182e-09 2.641804406283e+00
    1.439824700356e-06 1.221926754806e-02 9.661540389061e-06 5.153702022552e+03
    6.478400000000e+04-5.587935447693e-08 2.021053860343e+00-2.142041921616e-07
    9.342605261238e-01 1.776875000000e+02 7.944984735248e-01-8.080693736186e-09
    1.532206679701e-10 1.000000000000e+00 2.190000000000e+03 0.000000000000e+00
    2.400000000000e+00 0.000000000000e+00 2.328306436539e-09 4.000000000000e+00
    6.420000000000e+04 4.000000000000e+00
 8 21 12 26 19 59 44.0-4.963390529156e-05-1.477928890381e-12 0.000000000000e+00
    2.500000000000e+01-1.625000000000e+00 4.355895726255e-09-5.912058386219e-01
   -1.844018697739e-07 7.010758970864e-03 8.229166269302e-06 5.153696784973e+03
    7.198400000000e+04 1.676380634308e-07-2.112330187900e+00-1.117587089539e-08
    9.652578291716e-01 2.247812500000e+02 6.966267407285e-02-8.082479524857e-09
   -3.342996392075e-10 1.000000000000e+00 2.190000000000e+03 0.000000000000e+00
    2.400000000000e+00 0.000000000000e+00 5.122274160385e-09 2.500000000000e+01
    6.480000000000e+04 4.000000000000e+00
 7 21 12 26 19 59 44.0 2.953251823783e-04 4.206412995700e-12 0.000000000000e+00
    2.500000000000e+01 4.756250000000e+01 4.768770066986e-09 2.722341459535e+00
    2.320855855942e-06 1.536929933354e-02 9.704381227493e-06 5.153711008072e+03
    7.198400000000e+04 2.980232238770e-08 2.102880108689e+00-1.825392246246e-07
    9.508439211631e-01 1.869687500000e+02-2.297906109516e+00-7.873899408087e-09
    2.557249376844e-10 1.000000000000e+00 2.190000000000e+03 0.000000000000e+00
    2.400000000000e+00 0.000000000000e+00-1.117587089539e-08 2.500000000000e+01
    6.480000000000e+04 4.000000000000e+00
24 21 12 26 19 59 44.0 2.762307412922e-04 1.136868377216e-12 0.000000000000e+00
    5.000000000000e+01 2.950000000000e+01 5.162000732336e-09-2.591186678560e+00
    1.356005668640e-06 1.221924461424e-02 9.873881936073e-06 5.153702081680e+03
    7.198400000000e+04 1.788139343262e-07 2.020994720416e+00-2.272427082062e-07
    9.342616540336e-01 1.729375000000e+02 7.944731123769e-01-8.174626220280e-09
    2.810831368123e-10 1.000000000000e+00 2.190000000000e+03 0.000000000000e+00
    2.400000000000e+00 0.000000000000e+00 2.328306436539e-09 5.000000000000e+01
    6.480000000000e+04 4.000000000000e+00
 3 21 12 26 20  0  0.0-5.507236346602e-05-1.330136001343e-11 0.000000000000e+00
    1.800000000000e+01-3.868750000000e+01 4.383039714054e-09 2.207288677336e+00
   -1.981854438782e-06 3.860874217935e-03 5.135312676430e-06 5.153707426071e+03
    7.200000000000e+04 2.235174179077e-08 2.210160542058e-03-1.080334186554e-07
    9.722282944223e-01 2.855000000000e+02 9.874329315965e-01-8.111766459061e-09
    1.257195224370e-10 1.000000000000e+00 2.190000000000e+03 0.000000000000e+00
    2.400000000000e+00 0.000000000000e+00 1.862645149231e-09 1.800000000000e+01
    6.480000000000e+04 4.000000000000e+00
 2 21 12 26 20  0  0.0-6.468952633440e-04-1.136868377216e-12 0.000000000000e+00
    8.000000000000e+01 2.831250000000e+01 4.148029924953e-09-2.731127385641e+00
    1.538544893265e-06 2.063109492883e-02 8.171424269676e-06 5.153668197632e+03
    7.200000000000e+04 2.495944499969e-07-1.121371762709e+00 9.685754776001e-08
    9.647656654939e-01 2.213125000000e+02-1.466346789127e+00-7.669962341861e-09
    2.685826161155e-10 1.000000000000e+00 2.190000000000e+03 0.000000000000e+00
    2.400000000000e+00 0.000000000000e+00-1.769512891769e-08 8.000000000000e+01
    6.480000000000e+04 4.000000000000e+00
 1 21 12 26 20  0  0.0 4.735919646919e-04-1.000444171950e-11 0.000000000000e+00
    4.700000000000e+01 3.143750000000e+01 3.766942622566e-09-2.902325975127e+00
    1.622363924980e-06 1.118668657728e-02 7.696449756622e-06 5.153672883987e+03
    7.200000000000e+04 3.352761268616e-08-1.033142393613e+00-4.656612873077e-08
    9.864205908227e-01 2.444375000000e+02 8.831722083760e-01-7.639246776720e-09
    2.771544017362e-10 1.000000000000e+00 2.190000000000e+03 0.000000000000e+00
    2.400000000000e+00 0.000000000000e+00 5.122274160385e-09 4.700000000000e+01
    6.480000000000e+04 4.000000000000e+00
10 21 12 26 20  0  0.0-2.781646326184e-04-9.208633855451e-12 0.000000000000e+00
    1.200000000000e+01-3.096875000000e+01 4.455899891830e-09 1.388449123896e+00
   -1.570209860802e-06 7.366217672825e-03 5.342066287994e-06 5.153678430557e+03
    7.200000000000e+04-5.774199962616e-08-5.937384687333e-04 1.136213541031e-07
    9.720650620230e-01 2.827500000000e+02-2.550689425424e+00-8.243200505246e-09
    6.214544575012e-11 1.000000000000e+00 2.190000000000e+03 0.000000000000e+00
    2.400000000000e+00 0.000000000000e+00 2.328306436539e-09 1.200000000000e+01
    6.480000000000e+04 4.000000000000e+00
12 21 12 26 20  0  0.0-1.465943641961e-04-5.570655048359e-12 0.000000000000e+00
    6.400000000000e+01 2.850000000000e+01 4.510902182897e-09 2.053045440052e+00
    1.210719347000e-06 8.493151981384e-03 5.882233381271e-06 5.153628673553e+03
    7.200000000000e+04-1.676380634308e-08-3.068273563533e+00-1.527369022369e-07
    9.713076654459e-01 2.686875000000e+02 1.232435722089e+00-8.056049852527e-09
   -1.800074980348e-10 1.000000000000e+00 2.190000000000e+03 0.000000000000e+00
    2.400000000000e+00 0.000000000000e+00-1.257285475731e-08 6.400000000000e+01
    6.480000000000e+04 4.000000000000e+00
 6 21 12 26 20  0  0.0 1.534009352326e-04 1.034550223267e-11 0.000000000000e+00
    5.200000000000e+01 3.678125000000e+01 3.909091400776e-09-2.515025012864e+00
    1.916661858559e-06 2.564653754234e-03 8.070841431618e-06 5.153640333176e+03
    7.200000000000e+04 8.754432201385e-08-1.041408044608e+00 4.842877388000e-08
    9.858071512362e-01 2.377812500000e+02-1.022076177598e+00-7.853898574972e-09
    2.392956819114e-10 1.000000000000e+00 2.190000000000e+03 0.000000000000e+00
    2.400000000000e+00 0.000000000000e+00 4.190951585770e-09 5.200000000000e+01
    6.480000000000e+04 4.000000000000e+00
 5 21 12 26 20  0  0.0-6.575137376785e-05-1.250555214938e-12 0.000000000000e+00
    1.070000000000e+02-2.775000000000e+01 4.735554397706e-09-2.631215736468e-01
   -1.341104507446e-06 5.920746363699e-03 5.176290869713e-06 5.153636152267e+03
    7.200000000000e+04-3.166496753693e-08-3.749536718112e-02 8.381903171539e-08
    9.592186253860e-01 2.787500000000e+02 1.015751627252e+00-8.437137154914e-09
    1.757216052245e-10 1.000000000000e+00 2.190000000000e+03 0.000000000000e+00
    2.400000000000e+00 0.000000000000e+00-1.117587089539e-08 1.070000000000e+02
    6.480000000000e+04 4.000000000000e+00
 4 21 12 26 20  0  0.0-1.975814811885e-04 1.477928890381e-12 0.000000000000e+00
    1.550000000000e+02-4.571875000000e+01 4.516616706644e-09-1.064425290454e+00
   -2.531334757805e-06 1.603640732355e-03 9.568408131599e-06 5.153667436600e+03
    7.200000000000e+04 2.980232238770e-08 1.083148658152e+00 1.490116119385e-08
    9.607050042825e-01 1.927187500000e+02-3.123004820863e+00-7.987832725295e-09
   -2.428672592533e-11 1.000000000000e+00 2.190000000000e+03 0.000000000000e+00
    2.400000000000e+00 0.000000000000e+00-4.190951585770e-09 9.230000000000e+02
    6.480000000000e+04 4.000000000000e+00
29 21 12 26 20  0  0.0-4.592249169946e-04-5.002220859751e-12 0.000000000000e+00
    7.600000000000e+01-4.968750000000e+00 3.926234972018e-09-5.759044396573e-01
   -3.315508365631e-07 1.755046891049e-03 8.432194590569e-06 5.153774473190e+03
    7.200000000000e+04-9.313225746155e-08-2.018261891429e+00-5.774199962616e-08
    9.822460385130e-01 2.284375000000e+02 2.312506213349e+00-7.829969006781e-09
   -2.839403986859e-10 1.000000000000e+00 2.190000000000e+03 0.000000000000e+00
    2.400000000000e+00 0.000000000000e+00-1.024454832077e-08 7.600000000000e+01
    6.480000000000e+04 4.000000000000e+00
31 21 12 26 20  0  0.0-1.569488085806e-04-1.818989403546e-12 0.000000000000e+00
    4.500000000000e+01 3.528125000000e+01 4.743769025592e-09 2.274951358067e+00
    1.870095729828e-06 1.045964879449e-02 9.540468454361e-06 5.153667860031e+03
    7.200000000000e+04-2.831220626831e-07 2.120774875198e+00 0.000000000000e+00
    9.551034558469e-01 1.955625000000e+02 3.572755268969e-01-8.029263022462e-09
    1.500062483624e-10 1.000000000000e+00 2.190000000000e+03 0.000000000000e+00
    2.400000000000e+00 0.000000000000e+00-1.303851604462e-08 4.500000000000e+01
    6.480000000000e+04 4.000000000000e+00
